spot1
1 16613U 86019A   23199.44371200  .00000791  00000-0  13440-3 0  9998
2 16613  98.7466  50.0085 0139816 348.9819  10.8329 14.66270882654908